{
    "CCSDS_OMM_VERS": "3.0",
    "COMMENT": "GENERATED VIA SPACE-TRACK.ORG API",
    "CREATION_DATE": "2025-05-23T14:46:20",
    "ORIGINATOR": "18 SPCS",
    "OBJECT_NAME": "GALILEO 23 (2C9)",
    "OBJECT_ID": "2018-060C",
    "CENTER_NAME": "EARTH",
    "REF_FRAME": "TEME",
    "TIME_SYSTEM": "UTC",
    "MEAN_ELEMENT_THEORY": "SGP4",
    "EPOCH": "2025-05-23T10:14:16.529280",
    "MEAN_MOTION": "1.70475551",
    "ECCENTRICITY": "0.00026330",
    "INCLINATION": "57.2811",
    "RA_OF_ASC_NODE": "352.3046",
    "ARG_OF_PERICENTER": "329.1315",
    "MEAN_ANOMALY": "30.8961",
    "EPHEMERIS_TYPE": "0",
    "CLASSIFICATION_TYPE": "U",
    "NORAD_CAT_ID": "43566",
    "ELEMENT_SET_NO": "999",
    "REV_AT_EPOCH": "4254",
    "BSTAR": "0.00000000000000",
    "MEAN_MOTION_DOT": "-0.00000070",
    "MEAN_MOTION_DDOT": "0.0000000000000",
    "SEMIMAJOR_AXIS": "29600.141",
    "PERIOD": "844.696",
    "APOAPSIS": "23229.799",
    "PERIAPSIS": "23214.212",
    "OBJECT_TYPE": "PAYLOAD",
    "RCS_SIZE": "LARGE",
    "COUNTRY_CODE": "ESA",
    "LAUNCH_DATE": "2018-07-25",
    "SITE": "FRGUI",
    "DECAY_DATE": null,
    "FILE": "4737001",
    "GP_ID": "288175750",
    "TLE_LINE0": "0 GALILEO 23 (2C9)",
    "TLE_LINE1": "1 43566U 18060C   25143.42658020 -.00000070  00000-0  00000+0 0  9998",
    "TLE_LINE2": "2 43566  57.2811 352.3046 0002633 329.1315  30.8961  1.70475551 42548"
}